norad_id,name,regime,epoch,line1,line2,inclination,eccentricity,mean_motion,raan,arg_pericenter,mean_anomaly
19751,COSMOS 1989 (ETALON 1),NSO,07041.59894148,1 19751U 89001C   07041.59894148 -.00000052 +00000-0 +10000-3 0 08778\,2 19751 065.4684 314.9945 0014944 222.6312 156.4863 02.13155662140811,65.4684,0.0014944,2.13155662,314.9945,222.6312,156.4863
19751,COSMOS 1989 (ETALON 1),NSO,07042.26414596,1 19751U 89001C   07042.26414596 -.00000049  00000-0  10000-3 0  8752\,2 19751 065.4679 314.9720 0014947 222.6496 306.9177 02.13155685140828,65.4679,0.0014947,2.13155685,314.972,222.6496,306.9177
19751,COSMOS 1989 (ETALON 1),NSO,07042.64626531,1 19751U 89001C   07042.64626531 -.00000046 +00000-0 +10000-3 0 08766\,2 19751 065.4676 314.9589 0014946 222.6472 240.1414 02.13155683140833,65.4676,0.0014946,2.13155683,314.9589,222.6472,240.1414
19751,COSMOS 1989 (ETALON 1),NSO,07043.66297171,1 19751U 89001C   07043.66297171 -.00000040  00000-0  10000-3 0  8767\,2 19751 065.4674 314.9251 0014969 222.6670 300.2983 02.13155717140851,65.4674,0.0014969,2.13155717,314.9251,222.667,300.2983
19751,COSMOS 1989 (ETALON 1),NSO,07044.63163704,1 19751U 89001C   07044.63163704 -.00000034 +00000-0 +10000-3 0 08795\,2 19751 065.4665 314.8920 0014945 222.6667 323.6100 02.13155727140876,65.4665,0.0014945,2.13155727,314.892,222.6667,323.61
19751,COSMOS 1989 (ETALON 1),NSO,07045.03484029,1 19751U 89001C   07045.03484029 -.00000032  00000-0  10000-3 0  8772\,2 19751 065.4665 314.8789 0014954 222.6486 273.0276 02.13155723140887,65.4665,0.0014954,2.13155723,314.8789,222.6486,273.0276
19751,COSMOS 1989 (ETALON 1),NSO,07045.94030690,1 19751U 89001C   07045.94030690 -.00000027 +00000-0 +10000-3 0 08799\,2 19751 065.4661 314.8483 0014945 222.6611 247.8301 02.13155727140909,65.4661,0.0014945,2.13155727,314.8483,222.6611,247.8301
19751,COSMOS 1989 (ETALON 1),NSO,07046.42652699,1 19751U 89001C   07046.42652699 -.00000025  00000-0  10000-3 0  8789\,2 19751 065.4655 314.8318 0014947 222.6663 260.9282 02.13155719140914,65.4655,0.0014947,2.13155719,314.8318,222.6663,260.9282
19751,COSMOS 1989 (ETALON 1),NSO,07046.43022168,1 19751U 89001C   07046.43022168 -.00000025 +00000-0 +10000-3 0 08793\,2 19751 065.4654 314.8317 0014947 222.6668 263.7629 02.13155720140915,65.4654,0.0014947,2.1315572,314.8317,222.6668,263.7629
19751,COSMOS 1989 (ETALON 1),NSO,07047.37477310,1 19751U 89001C   07047.37477310 -.00000023 +00000-0 +10000-3 0 08800\,2 19751 065.4646 314.7996 0014938 222.6363 268.5999 02.13155716140930,65.4646,0.0014938,2.13155716,314.7996,222.6363,268.5999
19751,COSMOS 1989 (ETALON 1),NSO,07048.38176009,1 19751U 89001C   07048.38176009 -.00000022  00000-0  10000-3 0  8790\,2 19751 065.4640 314.7657 0014939 222.5182 321.4362 02.13155762140953,65.464,0.0014939,2.13155762,314.7657,222.5182,321.4362
19751,COSMOS 1989 (ETALON 1),NSO,07049.75414699,1 19751U 89001C   07049.75414699 -.00000026  00000-0  10000-3 0  8808\,2 19751 065.4631 314.7195 0014941 222.4821 294.5810 02.13155771140983,65.4631,0.0014941,2.13155771,314.7195,222.4821,294.581
19751,COSMOS 1989 (ETALON 1),NSO,07050.30274852,1 19751U 89001C   07050.30274852 -.00000029  00000-0  10000-3 0  8810\,2 19751 065.4633 314.7014 0014946 222.3689 355.6669 02.13155791140995,65.4633,0.0014946,2.13155791,314.7014,222.3689,355.6669
19751,COSMOS 1989 (ETALON 1),NSO,07051.48276497,1 19751U 89001C   07051.48276497 -.00000037  00000-0  10000-3 0  8827\,2 19751 065.4621 314.6615 0014962 222.4070 181.1203 02.13155784141024,65.4621,0.0014962,2.13155784,314.6615,222.407,181.1203
19751,COSMOS 1989 (ETALON 1),NSO,07052.58995924,1 19751U 89001C   07052.58995924 -.00000046  00000-0  10000-3 0  8833\,2 19751 065.4607 314.6236 0014958 222.4783 310.6594 02.13155764141045,65.4607,0.0014958,2.13155764,314.6236,222.4783,310.6594
19751,COSMOS 1989 (ETALON 1),NSO,07053.89967037,1 19751U 89001C   07053.89967037 -.00000054 +00000-0 +10000-3 0 08853\,2 19751 065.4597 314.5792 0014985 222.3988 235.7535 02.13155783141071,65.4597,0.0014985,2.13155783,314.5792,222.3988,235.7535
19751,COSMOS 1989 (ETALON 1),NSO,07054.75686516,1 19751U 89001C   07054.75686516 -.00000057  00000-0  10000-3 0  8852\,2 19751 065.4585 314.5497 0014995 222.3667 173.5581 02.13155769141091,65.4585,0.0014995,2.13155769,314.5497,222.3667,173.5581
19751,COSMOS 1989 (ETALON 1),NSO,07055.83411409,1 19751U 89001C   07055.83411409 -.00000058 +00000-0 +10000-3 0 08872\,2 19751 065.4581 314.5131 0014983 222.3317 280.2260 02.13155772141118,65.4581,0.0014983,2.13155772,314.5131,222.3317,280.226
19751,COSMOS 1989 (ETALON 1),NSO,07056.19882459,1 19751U 89001C   07056.19882459 -.00000057 +00000-0 +10000-3 0 08878\,2 19751 065.4582 314.5004 0014980 222.2715 200.1488 02.13155773141121,65.4582,0.001498,2.13155773,314.5004,222.2715,200.1488
19751,COSMOS 1989 (ETALON 1),NSO,07057.05973051,1 19751U 89001C   07057.05973051 -.00000055  00000-0  10000-3 0  8871\,2 19751 065.4577 314.4714 0014977 222.2412 140.7994 02.13155767141148,65.4577,0.0014977,2.13155767,314.4714,222.2412,140.7994
19751,COSMOS 1989 (ETALON 1),NSO,07057.26509487,1 19751U 89001C   07057.26509487 -.00000054 +00000-0 +10000-3 0 08882\,2 19751 065.4576 314.4643 0014977 222.2438 298.3841 02.13155765141145,65.4576,0.0014977,2.13155765,314.4643,222.2438,298.3841
19751,COSMOS 1989 (ETALON 1),NSO,07058.15461921,1 19751U 89001C   07058.15461921 -.00000051  00000-0  10000-3 0  8888\,2 19751 065.4573 314.4341 0014979 222.2535 260.9543 02.13155742141168,65.4573,0.0014979,2.13155742,314.4341,222.2535,260.9543
19751,COSMOS 1989 (ETALON 1),NSO,07058.47437141,1 19751U 89001C   07058.47437141 -.00000049 +00000-0 +10000-3 0 08898\,2 19751 065.4571 314.4235 0014966 222.2066 146.3635 02.13155722141171,65.4571,0.0014966,2.13155722,314.4235,222.2066,146.3635
19751,COSMOS 1989 (ETALON 1),NSO,07059.61123362,1 19751U 89001C   07059.61123362 -.00000044  00000-0  10000-3 0  8897\,2 19751 065.4559 314.3851 0014988 222.1759 298.7702 02.13155703141190,65.4559,0.0014988,2.13155703,314.3851,222.1759,298.7702
19751,COSMOS 1989 (ETALON 1),NSO,07060.37306421,1 19751U 89001C   07060.37306421 -.00000042 +00000-0 +10000-3 0 08901\,2 19751 065.4557 314.3589 0014953 222.1373 163.4028 02.13155688141214,65.4557,0.0014953,2.13155688,314.3589,222.1373,163.4028
19751,COSMOS 1989 (ETALON 1),NSO,07060.93747226,1 19751U 89001C   07060.93747226 -.00000041  00000-0  10000-3 0  8904\,2 19751 065.4550 314.3397 0014950 222.1320 236.5090 02.13155675141221,65.455,0.001495,2.13155675,314.3397,222.132,236.509
19751,COSMOS 1989 (ETALON 1),NSO,07061.88667309,1 19751U 89001C   07061.88667309 -.00000039 +00000-0 +10000-3 0 08921\,2 19751 065.4545 314.3076 0014944 222.1186 244.8962 02.13155667141245,65.4545,0.0014944,2.13155667,314.3076,222.1186,244.8962
19751,COSMOS 1989 (ETALON 1),NSO,07062.40265440,1 19751U 89001C   07062.40265440 -.00000039  00000-0  10000-3 0  8919\,2 19751 065.4543 314.2899 0014929 222.1313 280.8249 02.13155673141256,65.4543,0.0014929,2.13155673,314.2899,222.1313,280.8249
19751,COSMOS 1989 (ETALON 1),NSO,07062.87145045,1 19751U 89001C   07062.87145045 -.00000039 +00000-0 +10000-3 0 08929\,2 19751 065.4540 314.2740 0014930 222.1246 280.5647 02.13155675141267,65.454,0.001493,2.13155675,314.274,222.1246,280.5647
19751,COSMOS 1989 (ETALON 1),NSO,07063.62602127,1 19751U 89001C   07063.62602127 -.00000040  00000-0  10000-3 0  8924\,2 19751 065.4533 314.2485 0014939 222.0570 139.6568 02.13155680141287,65.4533,0.0014939,2.1315568,314.2485,222.057,139.6568
19751,COSMOS 1989 (ETALON 1),NSO,07064.18968304,1 19751U 89001C   07064.18968304 -.00000041  00000-0  10000-3 0  8930\,2 19751 065.4532 314.2296 0014936 221.9725 212.2678 02.13155655141296,65.4532,0.0014936,2.13155655,314.2296,221.9725,212.2678
19751,COSMOS 1989 (ETALON 1),NSO,07064.68006590,1 19751U 89001C   07064.68006590 -.00000041 +00000-0 +10000-3 0 08946\,2 19751 065.4529 314.2123 0014945 222.0466 228.4945 02.13155686141307,65.4529,0.0014945,2.13155686,314.2123,222.0466,228.4945
19751,COSMOS 1989 (ETALON 1),NSO,07065.22814938,1 19751U 89001C   07065.22814938 -.00000041  00000-0  10000-3 0  8940\,2 19751 065.4524 314.1940 0014939 222.0839 289.0318 02.13155686141313,65.4524,0.0014939,2.13155686,314.194,222.0839,289.0318
19751,COSMOS 1989 (ETALON 1),NSO,07066.05295712,1 19751U 89001C   07066.05295712 -.00000041 +00000-0 +10000-3 0 08956\,2 19751 065.4515 314.1663 0014934 222.1191 201.9168 02.13155680141334,65.4515,0.0014934,2.1315568,314.1663,222.1191,201.9168
19751,COSMOS 1989 (ETALON 1),NSO,07068.02208883,1 19751U 89001C   07068.02208883 -.00000036  00000-0  10000-3 0  8952\,2 19751 065.4496 314.0998 0014924 222.1660 272.8933 02.13155674141376,65.4496,0.0014924,2.13155674,314.0998,222.166,272.8933
19751,COSMOS 1989 (ETALON 1),NSO,07068.56159941,1 19751U 89001C   07068.56159941 -.00000034 +00000-0 +10000-3 0 08960\,2 19751 065.4495 314.0816 0014924 222.1128 326.9429 02.13155676141387,65.4495,0.0014924,2.13155676,314.0816,222.1128,326.9429
19751,COSMOS 1989 (ETALON 1),NSO,07069.40759610,1 19751U 89001C   07069.40759610 -.00000030  00000-0  10000-3 0  8969\,2 19751 065.4485 314.0529 0014931 222.1338 256.1022 02.13155676141404,65.4485,0.0014931,2.13155676,314.0529,222.1338,256.1022
19751,COSMOS 1989 (ETALON 1),NSO,07069.84906626,1 19751U 89001C   07069.84906626 -.00000027 +00000-0 +10000-3 0 08975\,2 19751 065.4482 314.0380 0014933 222.1552 234.8462 02.13155688141411,65.4482,0.0014933,2.13155688,314.038,222.1552,234.8462
19751,COSMOS 1989 (ETALON 1),NSO,07070.74871709,1 19751U 89001C   07070.74871709 -.00000021  00000-0  10000-3 0  8973\,2 19751 065.4477 314.0057 0014965 221.8958 205.4666 02.13155978141431,65.4477,0.0014965,2.13155978,314.0057,221.8958,205.4666
19751,COSMOS 1989 (ETALON 1),NSO,07071.39229709,1 19751U 89001C   07071.39229709 -.00000017 +00000-0 +10000-3 0 08999\,2 19751 065.4472 313.9856 0014950 222.0961 339.1133 02.13155708141448,65.4472,0.001495,2.13155708,313.9856,222.0961,339.1133
